% program   : RTKLIB ver.demo5 b34d
% inp file  : C:\Users\Jonas\Documents\Projekt_repo\data\Pixel 10a__RNX__20260814113503.26o
% inp file  : C:\Users\Jonas\Documents\Projekt_repo\data\gope226j30.26o
% inp file  : C:\Users\Jonas\Documents\Projekt_repo\data\BRDC00IGS_R_20262260000_01D_MN.rnx
% inp file  : C:\Users\Jonas\Documents\Projekt_repo\data\IGS0OPSFIN_20262260000_01D_15M_ORB.SP3
% inp file  : C:\Users\Jonas\Documents\Projekt_repo\data\IGS0OPSFIN_20262260000_01D_30S_CLK.CLK
% obs start : 2026/08/14 09:35:30.0 GPST (week2431 466530.0s)
% obs end   : 2026/08/14 09:40:24.0 GPST (week2431 466824.0s)
% ref pos   :  3979316.4390   1050312.2534   4857066.9036
%
% (x/y/z-ecef=WGS84,Q=1:fix,2:float,3:sbas,4:dgps,5:single,6:ppp,ns=# of satellites)
%  GPST                      x-ecef(m)      y-ecef(m)      z-ecef(m)   Q  ns   sdx(m)   sdy(m)   sdz(m)  sdxy(m)  sdyz(m)  sdzx(m) age(s)  ratio
2026/08/14 09:35:35.001   3969487.9265   1044506.9318   4866102.4181   2   4   6.8128   5.8830  12.1161   5.8778   7.2676   8.2477   0.00    0.0
2026/08/14 09:35:36.001   3969478.3586   1044501.7297   4866085.3904   2   4   5.4741   4.8684   9.7989   4.8141   5.9885   6.7575   0.00    0.0
2026/08/14 09:35:37.000   3969476.5435   1044499.5517   4866084.1606   2   4   4.6377   4.2305   8.3777   4.1453   5.1887   5.8448   0.00    0.0
2026/08/14 09:35:38.001   3969470.9151   1044495.5920   4866074.4257   2   4   3.7105   3.6367   5.6792   3.4306   4.0244   4.2644   0.00    0.0
2026/08/14 09:35:39.000   3969471.4723   1044495.9928   4866076.2782   2   4   3.3746   3.3062   4.6610   3.1086   3.5294   3.6642   0.00    0.0
2026/08/14 09:35:40.001   3969468.8154   1044494.5995   4866072.9954   2   5   3.0819   3.0553   4.1321   2.8575   3.2186   3.3047   0.00    0.0
2026/08/14 09:35:41.001   3969468.7079   1044495.4736   4866073.1034   2   5   2.8589   2.8559   3.7617   2.6621   2.9841   3.0423   0.00    0.0
2026/08/14 09:35:42.001   3969467.5689   1044494.9871   4866071.6432   2   5   2.6797   2.6917   3.4801   2.5030   2.7966   2.8371   0.00    0.0
2026/08/14 09:35:43.000   3969467.6667   1044495.5156   4866071.1081   2   4   2.6131   2.6629   3.3945   2.4714   2.7756   2.7841   0.00    0.0
2026/08/14 09:35:44.001   3969466.9774   1044495.8026   4866069.7070   2   5   2.4743   2.5275   3.1847   2.3422   2.6224   2.6252   0.00    0.0
2026/08/14 09:35:45.004   3969466.6344   1044496.2684   4866069.3095   2   4   2.4243   2.5031   3.1253   2.3163   2.6031   2.5857   0.00    0.0
2026/08/14 09:35:46.001   3969466.6056   1044496.5711   4866069.8172   2   5   2.3115   2.3886   2.9570   2.2081   2.4742   2.4558   0.00    0.0
2026/08/14 09:35:47.001   3969466.8675   1044497.9049   4866071.4676   2   5   2.2133   2.2886   2.8133   2.1139   2.3628   2.3439   0.00    0.0
2026/08/14 09:35:48.000   3969466.4937   1044497.6338   4866070.9374   2   4   2.1554   2.2065   2.6993   2.0443   2.2736   2.2612   0.00    0.0
2026/08/14 09:35:49.001   3969466.4120   1044497.5586   4866070.5112   2   5   2.0751   2.1260   2.5836   1.9684   2.1838   2.1718   0.00    0.0
2026/08/14 09:35:50.000   3969466.9465   1044498.3655   4866071.5371   2   4   2.0293   2.0600   2.4939   1.9129   2.1129   2.1066   0.00    0.0
2026/08/14 09:35:53.000   3969468.1469   1044499.4536   4866072.3885   2   4   1.9484   1.9393   2.3584   1.8136   1.9978   2.0023   0.00    0.0
2026/08/14 09:35:54.000   3969469.0988   1044500.5826   4866073.2832   2   4   1.9148   1.8903   2.2932   1.7728   1.9455   1.9548   0.00    0.0
2026/08/14 09:35:55.000   3969470.1754   1044501.5150   4866074.5717   2   4   1.8840   1.8453   2.2337   1.7353   1.8976   1.9116   0.00    0.0
2026/08/14 09:35:56.000   3969470.1336   1044501.5721   4866074.5661   2   4   1.8557   1.8037   2.1791   1.7008   1.8535   1.8718   0.00    0.0
2026/08/14 09:35:57.000   3969470.7531   1044502.2867   4866075.5013   2   4   1.8294   1.7651   2.1287   1.6689   1.8127   1.8350   0.00    0.0
2026/08/14 09:35:58.000   3969470.4256   1044501.9792   4866074.9412   2   4   1.8049   1.7291   2.0819   1.6391   1.7747   1.8009   0.00    0.0
2026/08/14 09:36:00.000   3969471.2631   1044502.9145   4866075.6398   2   4   1.7674   1.6664   2.0177   1.5898   1.7138   1.7520   0.00    0.0
2026/08/14 09:36:01.000   3969470.5654   1044502.1568   4866074.5742   2   4   1.7466   1.6365   1.9781   1.5649   1.6820   1.7231   0.00    0.0
2026/08/14 09:36:02.000   3969470.7080   1044502.3234   4866074.7064   2   4   1.7271   1.6083   1.9409   1.5416   1.6522   1.6961   0.00    0.0
2026/08/14 09:36:03.000   3969470.2828   1044501.8261   4866074.1699   2   4   1.7086   1.5817   1.9060   1.5195   1.6241   1.6706   0.00    0.0
2026/08/14 09:36:04.000   3969469.7528   1044501.1646   4866073.6630   2   4   1.6911   1.5565   1.8730   1.4987   1.5975   1.6466   0.00    0.0
2026/08/14 09:36:06.000   3969469.1312   1044500.5225   4866073.4892   2   4   1.6653   1.5261   1.8312   1.4714   1.5672   1.6143   0.00    0.0
2026/08/14 09:36:07.000   3969467.9485   1044499.2982   4866072.0734   2   4   1.6497   1.5036   1.8020   1.4528   1.5434   1.5930   0.00    0.0
2026/08/14 09:36:09.000   3969467.0759   1044498.2285   4866071.0221   2   4   1.6262   1.4763   1.7649   1.4282   1.5161   1.5641   0.00    0.0
2026/08/14 09:36:10.000   3969466.5614   1044497.4995   4866070.6198   2   4   1.6122   1.4561   1.7390   1.4115   1.4947   1.5451   0.00    0.0
2026/08/14 09:36:11.000   3969466.1346   1044496.8364   4866070.1732   2   4   1.5988   1.4368   1.7143   1.3956   1.4744   1.5270   0.00    0.0
2026/08/14 09:36:12.000   3969466.1807   1044496.8690   4866070.0417   2   4   1.5859   1.4183   1.6907   1.3804   1.4549   1.5097   0.00    0.0
2026/08/14 09:36:13.000   3969466.1988   1044496.8785   4866069.8003   2   4   1.5735   1.4007   1.6682   1.3659   1.4363   1.4931   0.00    0.0
2026/08/14 09:36:16.000   3969466.6118   1044497.1696   4866070.1155   2   5   1.5046   1.3440   1.6328   1.3030   1.3876   1.4443   0.00    0.0
2026/08/14 09:36:52.000   3969471.5785   1044496.9795   4866078.4648   2   5   7.9639   4.0307   9.0138   5.6329   5.9930   8.4556   0.00    0.0
2026/08/14 09:36:53.000   3969461.4783   1044492.0299   4866067.2505   2   5   3.9734   2.1399   4.4679   2.8567   3.0302   4.1794   0.00    0.0
2026/08/14 09:36:54.000   3969460.4587   1044491.6110   4866066.1167   2   5   3.7818   2.0559   4.2476   2.7280   2.8923   3.9724   0.00    0.0
2026/08/14 09:36:55.000   3969458.8504   1044490.6903   4866064.3378   2   5   3.6357   1.9924   4.0794   2.6305   2.7875   3.8144   0.00    0.0
2026/08/14 09:36:56.000   3969458.2556   1044490.3195   4866063.6464   2   5   3.4514   1.9108   3.8673   2.5059   2.6538   3.6149   0.00    0.0
2026/08/14 09:36:57.000   3969458.4667   1044490.3153   4866063.7520   2   5   3.2471   1.8199   3.6320   2.3671   2.5049   3.3935   0.00    0.0
2026/08/14 09:36:58.000   3969458.6285   1044490.2078   4866063.8846   2   5   3.0706   1.7418   3.4282   2.2475   2.3763   3.2016   0.00    0.0
2026/08/14 09:36:59.000   3969459.5510   1044490.6956   4866065.0775   2   4   2.9888   1.7011   3.3218   2.1875   2.3091   3.1067   0.00    0.0
2026/08/14 09:37:00.000   3969461.2300   1044491.3804   4866066.9079   2   5   2.8572   1.6509   3.1811   2.1052   2.2235   2.9692   0.00    0.0
2026/08/14 09:37:01.000   3969460.9312   1044491.1012   4866066.5943   2   4   2.8047   1.6279   3.1152   2.0688   2.1838   2.9091   0.00    0.0
2026/08/14 09:37:02.000   3969459.1130   1044490.2160   4866064.7866   2   5   2.7470   1.6059   3.0524   2.0337   2.1466   2.8486   0.00    0.0
2026/08/14 09:37:03.000   3969462.6788   1044492.4556   4866068.6938   2   5   2.3544   1.3652   2.6141   1.7162   1.8117   2.4261   0.00    0.0
2026/08/14 09:37:04.000   3969468.7110   1044496.1966   4866075.3651   2   6   2.0677   1.1865   2.2941   1.4801   1.5630   2.1158   0.00    0.0
2026/08/14 09:37:05.000   3969468.3681   1044496.2895   4866075.2017   2   6   1.8337   1.0631   2.0600   1.3035   1.3851   1.8759   0.00    0.0
2026/08/14 09:37:06.000   3969468.0949   1044496.1858   4866074.5089   2   7   1.6536   0.9719   1.8861   1.1704   1.2525   1.6941   0.00    0.0
2026/08/14 09:37:07.000   3969467.2363   1044495.8195   4866073.4753   2   6   1.5274   0.9059   1.7607   1.0749   1.1557   1.5645   0.00    0.0
2026/08/14 09:37:08.000   3969467.0158   1044495.7087   4866073.2354   2   7   1.4261   0.8517   1.6598   0.9977   1.0773   1.4603   0.00    0.0
2026/08/14 09:37:09.000   3969467.5457   1044496.0639   4866073.9227   2   7   1.3426   0.8069   1.5762   0.9342   1.0124   1.3742   0.00    0.0
2026/08/14 09:37:10.000   3969466.8261   1044495.6470   4866073.0452   2   7   1.2720   0.7690   1.5052   0.8806   0.9575   1.3014   0.00    0.0
2026/08/14 09:37:11.000   3969466.4839   1044495.4060   4866072.6085   2   6   1.2301   0.7393   1.4529   0.8428   0.9159   1.2521   0.00    0.0
2026/08/14 09:37:12.000   3969465.2995   1044494.6712   4866071.2472   2   7   1.1750   0.7100   1.3963   0.8013   0.8728   1.1950   0.00    0.0
2026/08/14 09:37:13.000   3969464.5774   1044494.3842   4866070.3852   2   6   1.1448   0.7031   1.3707   0.7863   0.8595   1.1674   0.00    0.0
2026/08/14 09:37:14.000   3969464.4082   1044494.3429   4866070.0733   2   4   1.1412   0.7040   1.3640   0.7865   0.8590   1.1622   0.00    0.0
2026/08/14 09:37:15.000   3969464.2931   1044494.1141   4866069.9607   2   6   1.1123   0.6956   1.3365   0.7708   0.8439   1.1347   0.00    0.0
2026/08/14 09:37:16.000   3969463.9996   1044493.9211   4866069.4394   2   5   1.1056   0.6931   1.3235   0.7675   0.8386   1.1246   0.00    0.0
2026/08/14 09:37:17.000   3969463.8320   1044493.8637   4866069.1874   2   6   1.0794   0.6860   1.2954   0.7536   0.8247   1.0990   0.00    0.0
2026/08/14 09:37:18.000   3969463.6418   1044493.6700   4866068.9650   2   6   1.0546   0.6792   1.2696   0.7403   0.8116   1.0744   0.00    0.0
2026/08/14 09:37:19.000   3969463.8530   1044493.7039   4866069.0125   2   5   1.0352   0.6768   1.2565   0.7321   0.8060   1.0583   0.00    0.0
2026/08/14 09:37:21.000   3969463.2268   1044493.4702   4866068.4547   2   5   0.9901   0.6689   1.2285   0.7109   0.7909   1.0214   0.00    0.0
2026/08/14 09:37:22.000   3969462.2379   1044493.1811   4866067.5696   2   6   0.9641   0.6639   1.2121   0.6984   0.7814   1.0002   0.00    0.0
2026/08/14 09:37:23.000   3969461.8006   1044493.0084   4866067.1699   2   6   0.9418   0.6596   1.1978   0.6877   0.7733   0.9819   0.00    0.0
2026/08/14 09:37:24.000   3969461.9191   1044492.9708   4866067.2821   2   5   0.9322   0.6580   1.1893   0.6838   0.7697   0.9730   0.00    0.0
2026/08/14 09:37:25.000   3969462.2522   1044492.8462   4866067.2723   2   7   0.9012   0.6453   1.1404   0.6636   0.7429   0.9351   0.00    0.0
2026/08/14 09:37:26.000   3969461.9551   1044492.6136   4866066.5364   2   7   0.8749   0.6366   1.1003   0.6483   0.7232   0.9039   0.00    0.0
2026/08/14 09:37:27.000   3969461.6034   1044492.3941   4866065.8933   2   6   0.8576   0.6298   1.0686   0.6372   0.7081   0.8813   0.00    0.0
2026/08/14 09:37:28.000   3969461.6352   1044492.3326   4866065.5710   2   7   0.8358   0.6228   1.0367   0.6249   0.6926   0.8562   0.00    0.0
2026/08/14 09:37:29.000   3969461.1349   1044492.0324   4866064.9364   2   6   0.8227   0.6178   1.0214   0.6169   0.6838   0.8434   0.00    0.0
2026/08/14 09:37:30.000   3969460.8679   1044491.8323   4866064.8213   2   4   0.8173   0.6162   1.0219   0.6146   0.6825   0.8402   0.00    0.0
2026/08/14 09:37:31.000   3969460.5493   1044491.6862   4866064.2859   2   6   0.8053   0.6122   1.0049   0.6077   0.6749   0.8277   0.00    0.0
2026/08/14 09:37:32.000   3969460.4300   1044491.6630   4866063.9437   2   6   0.7932   0.6079   0.9895   0.6005   0.6668   0.8152   0.00    0.0
2026/08/14 09:37:33.000   3969460.3475   1044491.6754   4866063.8602   2   6   0.7816   0.6036   0.9752   0.5936   0.6592   0.8035   0.00    0.0
2026/08/14 09:37:34.000   3969460.1828   1044491.6563   4866063.7456   2   4   0.7752   0.6060   0.9745   0.5927   0.6618   0.8005   0.00    0.0
2026/08/14 09:37:35.000   3969459.8746   1044491.3843   4866063.3771   2   6   0.7623   0.5977   0.9547   0.5825   0.6481   0.7855   0.00    0.0
2026/08/14 09:37:36.000   3969459.7698   1044491.3304   4866063.3330   2   5   0.7599   0.5952   0.9545   0.5801   0.6461   0.7849   0.00    0.0
2026/08/14 09:37:37.000   3969459.7817   1044491.2911   4866063.3543   2   4   0.7527   0.5930   0.9479   0.5765   0.6423   0.7773   0.00    0.0
2026/08/14 09:37:38.000   3969459.4345   1044491.1024   4866062.8618   2   6   0.7421   0.5891   0.9291   0.5701   0.6342   0.7647   0.00    0.0
2026/08/14 09:37:39.000   3969459.4519   1044491.0542   4866062.8322   2   5   0.7395   0.5867   0.9275   0.5676   0.6319   0.7635   0.00    0.0
2026/08/14 09:37:40.000   3969459.0787   1044490.8321   4866062.3196   2   6   0.7275   0.5827   0.9087   0.5606   0.6234   0.7490   0.00    0.0
2026/08/14 09:37:41.000   3969458.7800   1044490.7010   4866061.9709   2   6   0.7175   0.5788   0.8938   0.5544   0.6159   0.7377   0.00    0.0
2026/08/14 09:37:42.000   3969458.6567   1044490.5524   4866061.8500   2   5   0.7155   0.5766   0.8934   0.5523   0.6141   0.7372   0.00    0.0
2026/08/14 09:37:43.000   3969458.5289   1044490.6455   4866061.7547   2   5   0.7040   0.5712   0.8762   0.5444   0.6050   0.7236   0.00    0.0
2026/08/14 09:37:44.000   3969458.5239   1044490.7711   4866061.8672   2   7   0.6916   0.5596   0.8548   0.5327   0.5885   0.7078   0.00    0.0
2026/08/14 09:37:45.000   3969458.4403   1044490.8526   4866061.8228   2   7   0.6811   0.5516   0.8375   0.5240   0.5770   0.6949   0.00    0.0
2026/08/14 09:37:46.000   3969458.5519   1044490.8955   4866061.9983   2   6   0.6778   0.5453   0.8339   0.5191   0.5710   0.6920   0.00    0.0
2026/08/14 09:37:47.000   3969458.5081   1044490.9030   4866061.8243   2   6   0.6667   0.5390   0.8149   0.5112   0.5606   0.6779   0.00    0.0
2026/08/14 09:37:48.000   3969458.4821   1044490.9851   4866061.7771   2   7   0.6567   0.5317   0.7978   0.5031   0.5498   0.6653   0.00    0.0
2026/08/14 09:37:49.000   3969458.3645   1044490.8877   4866061.6998   2   7   0.6475   0.5250   0.7827   0.4957   0.5401   0.6541   0.00    0.0
2026/08/14 09:37:50.000   3969458.2410   1044490.9525   4866061.7045   2   7   0.6387   0.5186   0.7685   0.4887   0.5310   0.6435   0.00    0.0
2026/08/14 09:37:51.000   3969458.1320   1044490.9760   4866061.5909   2   7   0.6303   0.5125   0.7549   0.4821   0.5224   0.6334   0.00    0.0
2026/08/14 09:37:52.000   3969457.9751   1044490.9061   4866061.4263   2   7   0.6223   0.5067   0.7420   0.4757   0.5142   0.6237   0.00    0.0
2026/08/14 09:37:53.000   3969458.0586   1044490.9496   4866061.5237   2   6   0.6196   0.5018   0.7390   0.4718   0.5094   0.6214   0.00    0.0
2026/08/14 09:37:54.000   3969457.9330   1044490.9310   4866061.3584   2   6   0.6109   0.4970   0.7242   0.4660   0.5020   0.6104   0.00    0.0
2026/08/14 09:37:55.000   3969457.8502   1044491.0160   4866061.3251   2   7   0.6030   0.4915   0.7106   0.4598   0.4938   0.6005   0.00    0.0
2026/08/14 09:37:56.000   3969457.9159   1044491.0552   4866061.4120   2   5   0.6016   0.4871   0.7092   0.4564   0.4897   0.5985   0.00    0.0
2026/08/14 09:37:57.000   3969457.9277   1044491.1669   4866061.4718   2   7   0.5931   0.4820   0.6934   0.4505   0.4818   0.5879   0.00    0.0
2026/08/14 09:37:58.000   3969458.0519   1044491.2610   4866061.6225   2   5   0.5919   0.4778   0.6922   0.4474   0.4780   0.5861   0.00    0.0
2026/08/14 09:37:59.000   3969458.2382   1044491.4597   4866061.8327   2   7   0.5835   0.4730   0.6762   0.4416   0.4703   0.5755   0.00    0.0
2026/08/14 09:38:00.000   3969458.3611   1044491.5670   4866061.9379   2   6   0.5814   0.4690   0.6738   0.4385   0.4665   0.5737   0.00    0.0
2026/08/14 09:38:01.000   3969458.2347   1044491.5954   4866061.7600   2   7   0.5729   0.4644   0.6579   0.4328   0.4590   0.5624   0.00    0.0
2026/08/14 09:38:02.000   3969458.0788   1044491.5715   4866061.5653   2   7   0.5662   0.4600   0.6457   0.4279   0.4524   0.5538   0.00    0.0
2026/08/14 09:38:03.000   3969457.9933   1044491.5864   4866061.5030   2   6   0.5618   0.4561   0.6428   0.4240   0.4482   0.5494   0.00    0.0
2026/08/14 09:38:04.000   3969457.7462   1044491.4617   4866061.2601   2   7   0.5558   0.4521   0.6292   0.4196   0.4420   0.5413   0.00    0.0
2026/08/14 09:38:05.000   3969457.6275   1044491.4318   4866061.1823   2   6   0.5516   0.4484   0.6262   0.4159   0.4380   0.5370   0.00    0.0
2026/08/14 09:38:06.000   3969457.6977   1044491.5008   4866061.2227   2   5   0.5515   0.4452   0.6252   0.4139   0.4353   0.5365   0.00    0.0
2026/08/14 09:38:07.000   3969457.5053   1044491.4537   4866060.9620   2   6   0.5464   0.4417   0.6202   0.4101   0.4312   0.5313   0.00    0.0
2026/08/14 09:38:08.000   3969457.5294   1044491.5050   4866061.0084   2   5   0.5467   0.4387   0.6193   0.4084   0.4289   0.5313   0.00    0.0
2026/08/14 09:38:09.000   3969457.7162   1044491.6052   4866061.2022   2   6   0.5412   0.4353   0.6135   0.4045   0.4246   0.5253   0.00    0.0
2026/08/14 09:38:10.000   3969457.7605   1044491.6772   4866061.1780   2   6   0.5377   0.4320   0.6088   0.4014   0.4209   0.5213   0.00    0.0
2026/08/14 09:38:11.000   3969457.6219   1044491.5649   4866060.9308   2   4   0.5330   0.4287   0.6027   0.3976   0.4161   0.5158   0.00    0.0
2026/08/14 09:38:12.000   3969457.4914   1044491.4204   4866060.7877   2   6   0.5318   0.4251   0.5986   0.3949   0.4122   0.5132   0.00    0.0
2026/08/14 09:38:13.000   3969457.5943   1044491.4782   4866060.8766   2   7   0.5254   0.4214   0.5926   0.3903   0.4074   0.5066   0.00    0.0
2026/08/14 09:38:14.000   3969457.6268   1044491.5296   4866060.8717   2   6   0.5233   0.4208   0.5908   0.3898   0.4069   0.5048   0.00    0.0
2026/08/14 09:38:15.000   3969457.7256   1044491.5639   4866060.8711   2   6   0.5215   0.4203   0.5893   0.3893   0.4066   0.5032   0.00    0.0
2026/08/14 09:38:16.000   3969457.5967   1044491.5386   4866060.7829   2   6   0.5196   0.4198   0.5881   0.3889   0.4063   0.5017   0.00    0.0
2026/08/14 09:38:17.000   3969457.5880   1044491.5625   4866060.7476   2   5   0.5207   0.4196   0.5877   0.3896   0.4066   0.5019   0.00    0.0
2026/08/14 09:38:18.000   3969457.6086   1044491.5734   4866060.7587   2   5   0.5210   0.4194   0.5874   0.3901   0.4069   0.5020   0.00    0.0
2026/08/14 09:38:19.000   3969457.4000   1044491.3788   4866060.5230   2   6   0.5107   0.4135   0.5820   0.3821   0.4010   0.4941   0.00    0.0
2026/08/14 09:38:20.000   3969457.4243   1044491.3856   4866060.5095   2   8   0.5017   0.4074   0.5768   0.3745   0.3951   0.4869   0.00    0.0
2026/08/14 09:38:21.000   3969457.3268   1044491.4129   4866060.4609   2   8   0.4940   0.4023   0.5722   0.3682   0.3902   0.4806   0.00    2.1
2026/08/14 09:38:22.000   3969457.2104   1044491.3157   4866060.3335   2   6   0.4893   0.3976   0.5685   0.3628   0.3858   0.4761   0.00    1.9
2026/08/14 09:38:23.000   3969457.0298   1044491.0219   4866059.5471   1   8   0.0118   0.0112   0.0277   0.0091   0.0149   0.0162   0.00    3.3
2026/08/14 09:38:24.000   3969457.0305   1044491.0169   4866059.5503   1   8   0.0116   0.0111   0.0272   0.0089   0.0146   0.0159   0.00    3.7
2026/08/14 09:38:25.000   3969457.0303   1044491.0192   4866059.5322   1   8   0.0115   0.0111   0.0270   0.0088   0.0145   0.0158   0.00    3.9
2026/08/14 09:38:26.000   3969457.0189   1044491.0219   4866059.5140   1   8   0.0115   0.0111   0.0270   0.0088   0.0145   0.0158   0.00    3.7
2026/08/14 09:38:27.000   3969457.0659   1044491.0022   4866060.0773   2   7   0.4600   0.3799   0.5492   0.3406   0.3681   0.4519   0.00    2.0
2026/08/14 09:38:28.000   3969457.0465   1044490.9970   4866060.0202   2   6   0.4581   0.3793   0.5473   0.3399   0.3675   0.4502   0.00    2.1
2026/08/14 09:38:29.000   3969457.1398   1044491.0133   4866060.0538   2   7   0.4551   0.3786   0.5448   0.3388   0.3665   0.4477   0.00    2.8
2026/08/14 09:38:30.000   3969456.9969   1044490.9793   4866059.4887   1   7   0.0197   0.0233   0.0364   0.0201   0.0264   0.0252   0.00    3.9
2026/08/14 09:38:31.000   3969457.1731   1044490.9827   4866059.9648   2   5   0.4514   0.3788   0.5410   0.3386   0.3663   0.4443   0.00    1.0
2026/08/14 09:38:32.000   3969457.0093   1044490.9907   4866059.5164   1   7   0.0216   0.0254   0.0401   0.0222   0.0294   0.0280   0.00    3.4
2026/08/14 09:38:33.000   3969457.0238   1044491.0105   4866059.5443   1   6   0.0317   0.0411   0.0590   0.0353   0.0476   0.0423   0.00    4.6
2026/08/14 09:38:34.000   3969457.0150   1044490.9957   4866059.5205   1   7   0.0214   0.0252   0.0398   0.0220   0.0292   0.0277   0.00    3.9
2026/08/14 09:38:35.000   3969457.2208   1044491.1054   4866060.0200   2   6   0.4407   0.3751   0.5295   0.3337   0.3612   0.4343   0.00    1.3
2026/08/14 09:38:36.000   3969457.0037   1044491.0017   4866059.5100   1   7   0.0199   0.0235   0.0367   0.0203   0.0267   0.0254   0.00    3.9
2026/08/14 09:38:37.000   3969457.0037   1044490.9978   4866059.5007   1   7   0.0198   0.0235   0.0366   0.0203   0.0266   0.0253   0.00    3.6
2026/08/14 09:38:38.000   3969457.0193   1044491.0073   4866059.5152   1   7   0.0198   0.0234   0.0366   0.0202   0.0266   0.0253   0.00    3.7
2026/08/14 09:38:39.000   3969457.0414   1044491.0070   4866059.8173   2   7   0.4275   0.3693   0.5153   0.3262   0.3541   0.4219   0.00    2.8
2026/08/14 09:38:40.000   3969457.0286   1044491.0264   4866059.5526   1   8   0.0116   0.0112   0.0274   0.0090   0.0148   0.0160   0.00    7.1
2026/08/14 09:38:41.000   3969457.0298   1044491.0231   4866059.5391   1   8   0.0115   0.0111   0.0271   0.0089   0.0146   0.0158   0.00    7.4
2026/08/14 09:38:42.000   3969457.0273   1044491.0236   4866059.5370   1   8   0.0115   0.0111   0.0270   0.0088   0.0146   0.0158   0.00    6.8
2026/08/14 09:38:43.000   3969457.0334   1044491.0225   4866059.5405   1   6   0.0143   0.0134   0.0283   0.0038   0.0165   0.0137   0.00    4.1
2026/08/14 09:38:44.000   3969457.0302   1044491.0329   4866059.5543   1   8   0.0115   0.0111   0.0269   0.0088   0.0145   0.0157   0.00    3.9
2026/08/14 09:38:45.000   3969457.0242   1044491.0318   4866059.5291   1   7   0.0124   0.0113   0.0268   0.0081   0.0144   0.0157   0.00    3.0
2026/08/14 09:38:46.000   3969456.8233   1044490.8043   4866059.2564   2   7   0.3970   0.3452   0.4774   0.2981   0.3264   0.3897   0.00    1.9
2026/08/14 09:38:47.000   3969456.6818   1044490.6838   4866059.0501   2   7   0.3934   0.3422   0.4722   0.2946   0.3228   0.3856   0.00    1.1
2026/08/14 09:38:48.000   3969456.7380   1044490.6138   4866059.0142   2   8   0.3892   0.3392   0.4667   0.2911   0.3192   0.3812   0.00    1.6
2026/08/14 09:38:49.000   3969456.7553   1044490.5461   4866058.9029   2   8   0.3852   0.3363   0.4613   0.2877   0.3156   0.3769   0.00    1.4
2026/08/14 09:38:50.000   3969456.7521   1044490.5357   4866058.7910   2   8   0.3812   0.3334   0.4559   0.2843   0.3121   0.3726   0.00    1.1
2026/08/14 09:38:51.000   3969456.7990   1044490.5361   4866058.7969   2   8   0.3773   0.3306   0.4504   0.2810   0.3087   0.3683   0.00    1.1
2026/08/14 09:38:52.000   3969456.8320   1044490.5528   4866058.6963   2   8   0.3735   0.3279   0.4450   0.2778   0.3053   0.3642   0.00    1.1
2026/08/14 09:38:53.000   3969457.0644   1044490.6503   4866059.0281   2   7   0.3704   0.3253   0.4399   0.2748   0.3020   0.3604   0.00    2.0
2026/08/14 09:38:54.000   3969457.0928   1044490.7109   4866059.1782   2   8   0.3668   0.3227   0.4345   0.2718   0.2987   0.3564   0.00    1.3
2026/08/14 09:38:55.000   3969456.9921   1044490.6460   4866058.9475   2   8   0.3633   0.3201   0.4292   0.2688   0.2954   0.3524   0.00    1.3
2026/08/14 09:38:56.000   3969456.9150   1044490.6066   4866058.7212   2   8   0.3598   0.3176   0.4239   0.2659   0.2922   0.3485   0.00    1.2
2026/08/14 09:38:57.000   3969456.9303   1044490.6128   4866058.6446   2   8   0.3564   0.3152   0.4186   0.2630   0.2891   0.3446   0.00    1.3
2026/08/14 09:38:58.000   3969456.9683   1044490.6206   4866058.5784   2   8   0.3531   0.3128   0.4134   0.2603   0.2860   0.3408   0.00    1.2
2026/08/14 09:38:59.000   3969456.9602   1044490.5928   4866058.4660   2   8   0.3499   0.3104   0.4082   0.2576   0.2830   0.3371   0.00    1.2
2026/08/14 09:39:00.000   3969456.9333   1044490.5384   4866058.3564   2   7   0.3473   0.3082   0.4032   0.2549   0.2800   0.3337   0.00    1.2
2026/08/14 09:39:01.000   3969457.0110   1044490.5917   4866058.4230   2   7   0.3445   0.3059   0.3983   0.2524   0.2771   0.3304   0.00    1.4
2026/08/14 09:39:02.000   3969457.0453   1044490.5692   4866058.3597   2   7   0.3420   0.3038   0.3934   0.2498   0.2742   0.3271   0.00    1.1
2026/08/14 09:39:03.000   3969457.0414   1044490.5396   4866058.2606   2   8   0.3390   0.3016   0.3884   0.2474   0.2714   0.3236   0.00    1.1
2026/08/14 09:39:04.000   3969457.0175   1044490.4872   4866058.1086   2   7   0.3366   0.2995   0.3837   0.2449   0.2686   0.3205   0.00    1.1
2026/08/14 09:39:05.000   3969456.9787   1044490.4228   4866057.9893   2   6   0.3346   0.2976   0.3793   0.2425   0.2661   0.3175   0.00    1.7
2026/08/14 09:39:06.000   3969456.9213   1044490.3341   4866057.8686   2   8   0.3317   0.2954   0.3743   0.2403   0.2632   0.3143   0.00    1.0
2026/08/14 09:39:07.000   3969456.8581   1044490.2721   4866057.7620   2   8   0.3289   0.2934   0.3695   0.2381   0.2605   0.3111   0.00    1.1
2026/08/14 09:39:08.000   3969456.7982   1044490.1976   4866057.6206   2   8   0.3262   0.2914   0.3649   0.2358   0.2579   0.3079   0.00    1.1
2026/08/14 09:39:09.000   3969456.8378   1044490.2370   4866057.6321   2   7   0.3240   0.2895   0.3604   0.2337   0.2553   0.3049   0.00    1.2
2026/08/14 09:39:10.000   3969456.8283   1044490.2256   4866057.5177   2   7   0.3218   0.2877   0.3560   0.2315   0.2529   0.3021   0.00    2.1
2026/08/14 09:39:11.000   3969456.8107   1044490.2307   4866057.4389   2   8   0.3193   0.2858   0.3515   0.2294   0.2504   0.2991   0.00    1.0
2026/08/14 09:39:12.000   3969456.7354   1044490.1718   4866057.2737   2   8   0.3168   0.2840   0.3471   0.2274   0.2479   0.2962   0.00    1.0
2026/08/14 09:39:13.000   3969456.6798   1044490.1551   4866057.1436   2   8   0.3143   0.2822   0.3428   0.2254   0.2456   0.2933   0.00    1.0
2026/08/14 09:39:14.000   3969456.5098   1044489.4637   4866056.7012   1   7   0.0123   0.0113   0.0266   0.0080   0.0144   0.0155   0.00    3.9
2026/08/14 09:39:15.000   3969456.7305   1044490.2436   4866057.0660   2   8   0.3100   0.2787   0.3346   0.2215   0.2410   0.2879   0.00    1.1
2026/08/14 09:39:16.000   3969456.5220   1044489.4675   4866056.7314   1   7   0.0123   0.0113   0.0266   0.0080   0.0144   0.0155   0.00    3.8
2026/08/14 09:39:17.000   3969456.6859   1044490.2505   4866056.9925   2   8   0.3058   0.2754   0.3266   0.2178   0.2365   0.2828   0.00    1.2
2026/08/14 09:39:18.000   3969456.6963   1044490.2421   4866056.9532   2   8   0.3036   0.2737   0.3227   0.2161   0.2344   0.2802   0.00    1.1
2026/08/14 09:39:19.000   3969456.7401   1044490.3485   4866056.9849   2   8   0.3010   0.2712   0.3185   0.2135   0.2315   0.2771   0.00    1.2
2026/08/14 09:39:20.000   3969456.7216   1044490.3531   4866056.9573   2   7   0.2991   0.2692   0.3163   0.2112   0.2298   0.2750   0.00    1.0
2026/08/14 09:39:21.000   3969456.7939   1044490.4238   4866057.0030   2   9   0.2966   0.2666   0.3122   0.2087   0.2267   0.2722   0.00    1.2
2026/08/14 09:39:22.000   3969456.8145   1044490.4590   4866057.0359   2   9   0.2941   0.2642   0.3081   0.2063   0.2239   0.2694   0.00    1.2
2026/08/14 09:39:23.000   3969456.7943   1044490.4725   4866057.0370   2   9   0.2917   0.2619   0.3039   0.2039   0.2213   0.2665   0.00    1.3
2026/08/14 09:39:24.000   3969456.7988   1044490.4797   4866057.0052   2   9   0.2897   0.2597   0.2999   0.2015   0.2188   0.2638   0.00    1.5
2026/08/14 09:39:25.000   3969456.8567   1044490.5178   4866057.0690   2  10   0.2873   0.2575   0.2957   0.1994   0.2162   0.2610   0.00    1.0
2026/08/14 09:39:26.000   3969456.8146   1044490.4858   4866056.9759   2   7   0.2856   0.2551   0.2921   0.1967   0.2135   0.2584   0.00    2.7
2026/08/14 09:39:27.000   3969456.8013   1044490.5314   4866056.9263   2   9   0.2836   0.2526   0.2882   0.1944   0.2106   0.2561   0.00    1.1
2026/08/14 09:39:28.000   3969456.8804   1044490.5744   4866056.9285   2  10   0.2814   0.2502   0.2844   0.1922   0.2079   0.2535   0.00    1.5
2026/08/14 09:39:29.000   3969456.7914   1044490.5770   4866056.8769   2   9   0.2793   0.2482   0.2810   0.1902   0.2057   0.2511   0.00    1.4
2026/08/14 09:39:30.000   3969456.8638   1044490.6290   4866056.9263   2   8   0.2776   0.2464   0.2777   0.1881   0.2035   0.2489   0.00    1.1
2026/08/14 09:39:31.000   3969456.9571   1044490.6844   4866056.9975   2   8   0.2759   0.2445   0.2744   0.1861   0.2014   0.2468   0.00    1.0
2026/08/14 09:39:32.000   3969456.9992   1044490.6821   4866056.9855   2   9   0.2739   0.2426   0.2712   0.1844   0.1992   0.2445   0.00    1.3
2026/08/14 09:39:33.000   3969457.0120   1044490.6647   4866056.9192   2   9   0.2720   0.2408   0.2680   0.1825   0.1972   0.2423   0.00    1.3
2026/08/14 09:39:34.000   3969457.1063   1044490.7412   4866057.0019   2   8   0.2704   0.2391   0.2649   0.1806   0.1951   0.2403   0.00    1.3
2026/08/14 09:39:35.000   3969457.1121   1044490.7726   4866056.9848   2   9   0.2685   0.2373   0.2618   0.1789   0.1931   0.2382   0.00    1.2
2026/08/14 09:39:36.000   3969457.1920   1044490.8612   4866057.0823   2  10   0.2664   0.2350   0.2582   0.1766   0.1904   0.2357   0.00    1.2
2026/08/14 09:39:37.000   3969457.1649   1044490.9067   4866057.0786   2  10   0.2644   0.2328   0.2546   0.1746   0.1878   0.2333   0.00    1.3
2026/08/14 09:39:38.000   3969457.2047   1044490.9458   4866057.1369   2   9   0.2627   0.2308   0.2512   0.1724   0.1853   0.2310   0.00    1.0
2026/08/14 09:39:39.000   3969457.2413   1044490.9971   4866057.2177   2   9   0.2611   0.2289   0.2480   0.1702   0.1830   0.2289   0.00    1.3
2026/08/14 09:39:40.000   3969457.3124   1044491.0218   4866057.2521   2  10   0.2591   0.2269   0.2448   0.1684   0.1807   0.2267   0.00    1.2
2026/08/14 09:39:41.000   3969457.3676   1044491.0282   4866057.2651   2  10   0.2573   0.2250   0.2418   0.1666   0.1785   0.2246   0.00    1.2
2026/08/14 09:39:42.000   3969457.3975   1044491.0308   4866057.2781   2  10   0.2555   0.2232   0.2388   0.1647   0.1764   0.2225   0.00    1.1
2026/08/14 09:39:43.000   3969457.4557   1044491.0637   4866057.2935   2  10   0.2538   0.2213   0.2360   0.1629   0.1743   0.2205   0.00    1.1
2026/08/14 09:39:44.000   3969457.3936   1044491.0450   4866057.2661   2   8   0.2526   0.2197   0.2332   0.1609   0.1723   0.2187   0.00    2.3
2026/08/14 09:39:45.000   3969457.3974   1044490.9904   4866057.2528   2  10   0.2508   0.2179   0.2305   0.1593   0.1703   0.2168   0.00    1.0
2026/08/14 09:39:46.000   3969457.3983   1044490.9912   4866057.2362   2   9   0.2493   0.2162   0.2285   0.1577   0.1685   0.2153   0.00    1.3
2026/08/14 09:39:47.000   3969457.4353   1044491.0165   4866057.2675   2   9   0.2479   0.2145   0.2265   0.1561   0.1667   0.2138   0.00    1.3
2026/08/14 09:39:48.000   3969457.4591   1044491.0113   4866057.2746   2   8   0.2466   0.2130   0.2246   0.1544   0.1649   0.2123   0.00    1.0
2026/08/14 09:39:49.000   3969457.4446   1044490.9826   4866057.2559   2   9   0.2451   0.2113   0.2227   0.1529   0.1632   0.2108   0.00    1.4
2026/08/14 09:39:50.000   3969457.4382   1044490.9834   4866057.2640   2   8   0.2445   0.2100   0.2222   0.1521   0.1622   0.2103   0.00    1.0
2026/08/14 09:39:51.000   3969457.3940   1044490.9805   4866057.2529   2   6   0.2440   0.2094   0.2221   0.1518   0.1619   0.2100   0.00    2.3
2026/08/14 09:39:52.000   3969457.3442   1044490.9419   4866057.2344   2   7   0.2436   0.2079   0.2213   0.1504   0.1604   0.2096   0.00    2.0
2026/08/14 09:39:53.000   3969457.3175   1044490.8801   4866057.2228   2   8   0.2424   0.2065   0.2201   0.1495   0.1593   0.2084   0.00    1.0
2026/08/14 09:39:54.000   3969457.2785   1044490.8646   4866057.2060   2   8   0.2414   0.2052   0.2190   0.1485   0.1582   0.2074   0.00    1.0
2026/08/14 09:39:55.000   3969457.2630   1044490.8648   4866057.2135   2   7   0.2408   0.2045   0.2181   0.1479   0.1574   0.2067   0.00    2.4
2026/08/14 09:39:56.000   3969457.1843   1044490.7770   4866057.1948   2   7   0.2404   0.2030   0.2174   0.1466   0.1561   0.2063   0.00    1.6
2026/08/14 09:39:57.000   3969457.1100   1044490.6988   4866057.1587   2   6   0.2407   0.2018   0.2173   0.1455   0.1550   0.2065   0.00    1.0
2026/08/14 09:39:58.000   3969457.0860   1044490.7578   4866057.1436   2   7   0.2389   0.2012   0.2159   0.1451   0.1545   0.2048   0.00    2.3
2026/08/14 09:39:59.000   3969457.0280   1044490.7300   4866057.1404   2   7   0.2382   0.2004   0.2149   0.1445   0.1537   0.2040   0.00    2.1
2026/08/14 09:40:00.000   3969457.0041   1044490.7018   4866057.1391   2   6   0.2380   0.1996   0.2143   0.1436   0.1528   0.2038   0.00    1.0
2026/08/14 09:40:01.000   3969456.9854   1044490.7459   4866057.1277   2   4   0.2378   0.2001   0.2142   0.1446   0.1516   0.2028   0.00    1.1
2026/08/14 09:40:02.000   3969456.9719   1044490.7397   4866057.1193   2   5   0.2374   0.1991   0.2139   0.1432   0.1516   0.2031   0.00    1.1
2026/08/14 09:40:03.000   3969456.8878   1044490.4556   4866056.9497   1   6   0.0121   0.0144   0.0144   0.0084  -0.0055   0.0097   0.00    3.2
2026/08/14 09:40:04.000   3969456.9863   1044490.7434   4866057.1680   2   6   0.2361   0.1984   0.2126   0.1432   0.1514   0.2019   0.00    3.0
2026/08/14 09:40:05.000   3969456.9634   1044490.7444   4866057.1679   2   5   0.2361   0.1983   0.2126   0.1426   0.1507   0.2019   0.00    1.5
2026/08/14 09:40:06.000   3969456.9518   1044490.7728   4866057.1710   2   6   0.2354   0.1979   0.2118   0.1427   0.1508   0.2011   0.00    2.3
2026/08/14 09:40:07.000   3969456.9232   1044490.7752   4866057.1412   2   6   0.2349   0.1976   0.2112   0.1426   0.1505   0.2006   0.00    2.2
2026/08/14 09:40:08.000   3969456.9260   1044490.7874   4866057.1733   2   6   0.2344   0.1969   0.2106   0.1423   0.1501   0.2001   0.00    1.9
2026/08/14 09:40:09.000   3969457.0157   1044490.9458   4866057.2379   1   6   0.0148   0.0089   0.0138   0.0080   0.0019   0.0097   0.00    5.8
2026/08/14 09:40:10.000   3969456.9252   1044490.8243   4866057.2019   2   6   0.2337   0.1958   0.2098   0.1420   0.1495   0.1995   0.00    3.0
2026/08/14 09:40:11.000   3969456.9414   1044490.8710   4866057.2401   2   5   0.2359   0.1951   0.2098   0.1422   0.1489   0.2000   0.00    2.1
2026/08/14 09:40:12.000   3969456.9513   1044490.9078   4866057.2502   2   6   0.2335   0.1943   0.2095   0.1409   0.1482   0.1993   0.00    1.1
2026/08/14 09:40:13.000   3969456.9945   1044490.9253   4866057.3101   2   8   0.2325   0.1936   0.2086   0.1407   0.1478   0.1983   0.00    1.0
2026/08/14 09:40:14.000   3969457.0350   1044490.9658   4866057.3113   2   5   0.2323   0.1942   0.2082   0.1412   0.1470   0.1975   0.00    1.5
2026/08/14 09:40:15.000   3969457.0316   1044490.9511   4866057.3413   2   7   0.2316   0.1933   0.2074   0.1404   0.1473   0.1973   0.00    1.5
2026/08/14 09:40:16.000   3969457.0404   1044490.9977   4866057.3863   2   6   0.2316   0.1926   0.2073   0.1398   0.1468   0.1974   0.00    1.1
2026/08/14 09:40:17.000   3969457.0573   1044491.0540   4866057.4204   2   8   0.2307   0.1919   0.2066   0.1396   0.1464   0.1965   0.00    1.3
2026/08/14 09:40:18.000   3969457.0570   1044491.0803   4866057.4290   2   6   0.2311   0.1915   0.2081   0.1396   0.1466   0.1974   0.00    1.6
2026/08/14 09:40:19.000   3969456.9850   1044491.0771   4866057.3822   2   6   0.2319   0.1912   0.2119   0.1400   0.1473   0.1995   0.00    1.9
2026/08/14 09:40:20.000   3969457.0734   1044491.1154   4866057.4717   2   6   0.2302   0.1908   0.2114   0.1396   0.1472   0.1973   0.00    1.0
2026/08/14 09:40:21.001   3969457.0589   1044491.0937   4866057.4893   2   6   0.2301   0.1920   0.2089   0.1406   0.1485   0.1971   0.00    2.2
2026/08/14 09:40:22.001   3969457.0792   1044491.1174   4866057.4947   2   6   0.2292   0.1904   0.2090   0.1393   0.1468   0.1960   0.00    1.1
2026/08/14 09:40:23.001   3969457.0742   1044491.1177   4866057.5287   2   5   0.2292   0.1931   0.2077   0.1402   0.1475   0.1962   0.00    1.2
2026/08/14 09:40:24.001   3969457.0954   1044491.1518   4866057.5734   2   7   0.2283   0.1899   0.2059   0.1390   0.1461   0.1950   0.00    1.5
