% program   : RTKLIB ver.demo5 b34d
% inp file  : C:\Users\Jonas\Documents\Projekt_repo\data\Pixel 10a__RNX__20260814113503.26o
% inp file  : C:\Users\Jonas\Documents\Projekt_repo\data\gope226j30.26o
% inp file  : C:\Users\Jonas\Documents\Projekt_repo\data\BRDC00IGS_R_20262260000_01D_MN.rnx
% inp file  : C:\Users\Jonas\Documents\Projekt_repo\data\IGS0OPSFIN_20262260000_01D_15M_ORB.SP3
% inp file  : C:\Users\Jonas\Documents\Projekt_repo\data\IGS0OPSFIN_20262260000_01D_30S_CLK.CLK
% obs start : 2026/08/14 09:35:30.0 GPST (week2431 466530.0s)
% obs end   : 2026/08/14 09:40:24.0 GPST (week2431 466824.0s)
% ref pos   :  3979316.4390   1050312.2534   4857066.9036
%
% (x/y/z-ecef=WGS84,Q=1:fix,2:float,3:sbas,4:dgps,5:single,6:ppp,ns=# of satellites)
%  GPST                      x-ecef(m)      y-ecef(m)      z-ecef(m)   Q  ns   sdx(m)   sdy(m)   sdz(m)  sdxy(m)  sdyz(m)  sdzx(m) age(s)  ratio
